NORAD_CAT_ID,OBJECT_NAME,OBJECT_TYPE,EPOCH,MEAN_MOTION,ECCENTRICITY,INCLINATION,RA_OF_ASC_NODE,ARG_OF_PERICENTER,MEAN_ANOMALY,BSTAR,MEAN_MOTION_DOT,MEAN_MOTION_DDOT,TLE_LINE0,TLE_LINE1,TLE_LINE2,SEMIMAJOR_AXIS,PERIOD,APOGEE,PERIGEE,DECAYED
54800.0,STARLINK-5428,PAYLOAD,2023-12-23 11:55:44,15.08846659,0.000157,53.218,57.5239,72.9955,287.1209,1.3376e-05,-7.5e-07,0.0,0 STARLINK-5428,1 54800U 22175AU  23357.49704707 -.00000075  00000-0  13376-4 0  9999,2 54800  53.2180  57.5239 0001570  72.9955 287.1209 15.08846659 56045,6917.86,95.437,540.811,538.639,0.0
54800.0,STARLINK-5428,PAYLOAD,2023-12-23 13:31:07,15.08853206,0.0001495,53.2184,57.2144,73.4443,286.6713,5.6335e-05,6.09e-06,0.0,0 STARLINK-5428,1 54800U 22175AU  23357.56328062  .00000609  00000-0  56335-4 0  9997,2 54800  53.2184  57.2144 0001495  73.4443 286.6713 15.08853206 58216,6917.84,95.437,540.739,538.671,0.0
54800.0,STARLINK-5428,PAYLOAD,2023-12-24 03:49:36,15.08833564,0.0001178,53.2184,54.5466,109.1597,250.9523,3.8731e-05,3.29e-06,0.0,0 STARLINK-5428,1 54800U 22175AU  23358.15945161  .00000329  00000-0  38731-4 0  9997,2 54800  53.2184  54.5466 0001178 109.1597 250.9523 15.08833564 56146,6917.9,95.438,540.58,538.95,0.0
54800.0,STARLINK-5428,PAYLOAD,2023-12-24 10:11:08,15.08841039,0.0001555,53.2171,53.3572,98.5013,261.6156,8.8105e-05,1.115e-05,0.0,0 STARLINK-5428,1 54800U 22175AU  23358.42440652  .00001115  00000-0  88105-4 0  9996,2 54800  53.2171  53.3572 0001555  98.5013 261.6156 15.08841039 56181,6917.877,95.437,540.818,538.666,0.0
54800.0,STARLINK-5428,PAYLOAD,2023-12-25 10:01:55,15.08843906,0.0001682,53.2168,48.8983,81.0828,279.0354,0.00016496,2.339e-05,0.0,0 STARLINK-5428,1 54800U 22175AU  23359.41800648  .00002339  00000-0  16496-3 0  9993,2 54800  53.2168  48.8983 0001682  81.0828 279.0354 15.08843906 58498,6917.868,95.437,540.897,538.57,0.0
54800.0,STARLINK-5428,PAYLOAD,2023-12-26 09:52:43,15.08826785,0.0001724,53.2186,44.4373,99.3241,260.7946,0.00017073,2.429e-05,0.0,0 STARLINK-5428,1 54800U 22175AU  23360.41161524  .00002429  00000-0  17073-3 0  9990,2 54800  53.2186  44.4373 0001724  99.3241 260.7946 15.08826785 56488,6917.921,95.438,540.978,538.593,0.0
54800.0,STARLINK-5428,PAYLOAD,2023-12-27 09:43:29,15.08846715,0.0001774,53.2187,39.9801,106.0627,254.0561,8.4515e-05,1.057e-05,0.0,0 STARLINK-5428,1 54800U 22175AU  23361.40520489  .00001057  00000-0  84515-4 0  9991,2 54800  53.2187  39.9801 0001774 106.0627 254.0561 15.08846715 56634,6917.86,95.437,540.952,538.498,0.0
54800.0,STARLINK-5428,PAYLOAD,2023-12-28 03:12:45,15.08833833,0.0001847,53.2193,36.7094,103.2472,256.8726,5.1512e-05,5.32e-06,0.0,0 STARLINK-5428,1 54800U 22175AU  23362.13385572  .00000532  00000-0  51512-4 0  9992,2 54800  53.2193  36.7094 0001847 103.2472 256.8726 15.08833833 56740,6917.899,95.438,541.042,538.487,0.0
54800.0,STARLINK-5428,PAYLOAD,2023-12-28 09:34:17,15.08837133,0.0001763,53.2189,35.5158,105.9108,254.2079,6.9494e-05,8.18e-06,0.0,0 STARLINK-5428,1 54800U 22175AU  23362.39881290  .00000818  00000-0  69494-4 0  9993,2 54800  53.2189  35.5158 0001763 105.9108 254.2079 15.08837133 58949,6917.889,95.438,540.974,538.535,0.0
54800.0,STARLINK-5428,PAYLOAD,2023-12-29 09:25:04,15.08838031,0.000164,53.2184,31.0568,97.1154,263.0025,3.5648e-06,-2.31e-06,0.0,0 STARLINK-5428,1 54800U 22175AU  23363.39241786 -.00000231  00000-0  35648-5 0  9999,2 54800  53.2184  31.0568 0001640  97.1154 263.0025 15.08838031 56931,6917.886,95.438,540.886,538.617,0.0
54800.0,STARLINK-5428,PAYLOAD,2023-12-30 10:51:14,15.08843513,0.0001852,53.2184,26.2959,96.2644,263.8559,0.00011054,1.472e-05,0.0,0 STARLINK-5428,1 54800U 22175AU  23364.45225338  .00001472  00000-0  11054-3 0  9992,2 54800  53.2184  26.2959 0001852  96.2644 263.8559 15.08843513 57099,6917.87,95.437,541.016,538.453,0.0
54800.0,STARLINK-5428,PAYLOAD,2023-12-31 10:42:02,15.08837978,0.0001705,53.2188,21.8338,86.7197,273.399,7.4557e-05,8.99e-06,0.0,0 STARLINK-5428,1 54800U 22175AU  23365.44586082  .00000899  00000-0  74557-4 0  9998,2 54800  53.2188  21.8338 0001705  86.7197 273.3990 15.08837978 57249,6917.887,95.438,540.931,538.572,0.0
54800.0,STARLINK-5428,PAYLOAD,2024-01-01 07:22:02,15.08848851,0.0001688,53.2186,17.9694,82.0579,278.0605,3.9473e-05,3.4e-06,0.0,0 STARLINK-5428,1 54800U 22175AU  24001.30697468  .00000340  00000-0  39473-4 0  9991,2 54800  53.2186  17.9694 0001688  82.0579 278.0605 15.08848851 57372,6917.853,95.437,540.886,538.551,0.0
54800.0,STARLINK-5428,PAYLOAD,2024-01-02 04:02:03,15.0884264,0.000169,53.2184,14.1053,77.0235,283.0945,4.0797e-05,3.61e-06,0.0,0 STARLINK-5428,1 54800U 22175AU  24002.16809780  .00000361  00000-0  40797-4 0  9992,2 54800  53.2184  14.1053 0001690  77.0235 283.0945 15.08842640 57502,6917.872,95.437,540.906,538.568,0.0
54800.0,STARLINK-5428,PAYLOAD,2024-01-02 07:12:49,15.0884299,0.0001632,53.218,13.5102,80.1693,279.9484,4.5034e-05,4.29e-06,0.0,0 STARLINK-5428,1 54800U 22175AU  24002.30057709  .00000429  00000-0  45034-4 0  9998,2 54800  53.2180  13.5102 0001632  80.1693 279.9484 15.08842990 59686,6917.871,95.437,540.865,538.607,0.0
54800.0,STARLINK-5428,PAYLOAD,2024-01-03 07:03:36,15.08842204,0.0001712,53.2187,9.05,98.3712,261.7474,5.3779e-06,-2.02e-06,0.0,0 STARLINK-5428,1 54800U 22175AU  24003.29417644 -.00000202  00000-0  53779-5 0  9991,2 54800  53.2187   9.0500 0001712  98.3712 261.7474 15.08842204 57670,6917.874,95.437,540.923,538.554,0.0
54800.0,STARLINK-5428,PAYLOAD,2024-01-04 03:43:38,15.08832819,0.0001749,53.2186,5.1841,102.6676,257.4512,-1.404e-05,-5.11e-06,0.0,0 STARLINK-5428,1 54800U 22175AU  24004.15530404 -.00000511  00000-0 -14040-4 0  9998,2 54800  53.2186   5.1841 0001749 102.6676 257.4512 15.08832819 57803,6917.902,95.438,540.977,538.557,0.0
54800.0,STARLINK-5428,PAYLOAD,2024-01-04 05:19:01,15.08833648,0.0001743,53.2185,4.8868,100.5857,259.5332,-6.7272e-06,-3.95e-06,0.0,0 STARLINK-5428,1 54800U 22175AU  24004.22154350 -.00000395  00000-0 -67272-5 0  9994,2 54800  53.2185   4.8868 0001743 100.5857 259.5332 15.08833648 59973,6917.9,95.438,540.971,538.559,0.0
54800.0,STARLINK-5428,PAYLOAD,2024-01-05 05:09:48,15.0883857,0.000179,53.2191,0.4272,103.2471,256.8721,5.0839e-05,5.21e-06,0.0,0 STARLINK-5428,1 54800U 22175AU  24005.21514138  .00000521  00000-0  50839-4 0  9997,2 54800  53.2191   0.4272 0001790 103.2471 256.8721 15.08838570 57963,6917.885,95.438,540.988,538.511,0.0
54800.0,STARLINK-5428,PAYLOAD,2024-01-05 06:45:11,15.08842372,0.0001948,53.2189,0.1262,102.8633,257.2577,9.8796e-06,-1.31e-06,0.0,0 STARLINK-5428,1 54800U 22175AU  24005.28138040 -.00000131  00000-0  98796-5 0  9991,2 54800  53.2189   0.1262 0001948 102.8633 257.2577 15.08842372 60138,6917.873,95.437,541.086,538.391,0.0
54800.0,STARLINK-5428,PAYLOAD,2024-01-06 06:35:57,15.08877384,0.0001526,53.2191,355.6669,91.6487,268.468,-0.00042871,-7.112e-05,0.0,0 STARLINK-5428,1 54800U 22175AU  24006.27497474 -.00007112  00000-0 -42871-3 0  9998,2 54800  53.2191 355.6669 0001526  91.6487 268.4680 15.08877384 58120,6917.766,95.435,540.687,538.575,0.0
54800.0,STARLINK-5428,PAYLOAD,2024-01-06 22:29:50,15.08840335,0.0001686,53.2194,352.6965,90.5836,269.535,2.5072e-05,1.11e-06,0.0,0 STARLINK-5428,1 54800U 22175AU  24006.93738546  .00000111  00000-0  25072-4 0  9994,2 54800  53.2194 352.6965 0001686  90.5836 269.5350 15.08840335 60385,6917.879,95.438,540.911,538.578,0.0
54800.0,STARLINK-5428,PAYLOAD,2024-01-07 04:51:22,15.08839516,0.0001707,53.2193,351.5054,88.1219,271.9969,2.0792e-05,4.3e-07,0.0,0 STARLINK-5428,1 54800U 22175AU  24007.20234677  .00000043  00000-0  20792-4 0  9999,2 54800  53.2193 351.5054 0001707  88.1219 271.9969 15.08839516 58269,6917.882,95.438,540.928,538.566,0.0
54800.0,STARLINK-5428,PAYLOAD,2024-01-07 06:26:45,15.08840498,0.0001737,53.2193,351.208,83.5456,276.5734,3.0495e-05,1.97e-06,0.0,0 STARLINK-5428,1 54800U 22175AU  24007.26858615  .00000197  00000-0  30495-4 0  9990,2 54800  53.2193 351.2080 0001737  83.5456 276.5734 15.08840498 60434,6917.879,95.438,540.946,538.542,0.0
54800.0,STARLINK-5428,PAYLOAD,2024-01-08 07:52:55,15.08844721,0.0001796,53.2193,346.4502,78.135,281.9843,6.2211e-05,7.02e-06,0.0,0 STARLINK-5428,1 54800U 22175AU  24008.32842354  .00000702  00000-0  62211-4 0  9994,2 54800  53.2193 346.4502 0001796  78.1350 281.9843 15.08844721 58438,6917.866,95.437,540.973,538.489,0.0
54800.0,STARLINK-5428,PAYLOAD,2024-01-09 04:32:57,15.08838746,0.0001853,53.2189,342.5838,77.5125,282.6074,2.1575e-05,5.5e-07,0.0,0 STARLINK-5428,1 54800U 22175AU  24009.18954951  .00000055  00000-0  21575-4 0  9995,2 54800  53.2189 342.5838 0001853  77.5125 282.6074 15.08838746 58567,6917.884,95.438,541.031,538.467,0.0
54800.0,STARLINK-5428,PAYLOAD,2024-01-09 07:43:42,15.08845003,0.0001818,53.2197,341.984,100.8571,259.2626,5.0218e-06,-2.08e-06,0.0,0 STARLINK-5428,1 54800U 22175AU  24009.32202499 -.00000208  00000-0  50218-5 0  9992,2 54800  53.2197 341.9840 0001818 100.8571 259.2626 15.08845003 60748,6917.865,95.437,540.988,538.472,0.0
54800.0,STARLINK-5428,PAYLOAD,2024-01-09 22:02:11,15.08847671,0.0001819,53.2206,339.308,109.2765,250.8424,-1.2115e-05,-4.81e-06,0.0,0 STARLINK-5428,1 54800U 22175AU  24009.91818375 -.00000481  00000-0 -12115-4 0  9990,2 54800  53.2206 339.3080 0001819 109.2765 250.8424 15.08847671 60831,6917.857,95.437,540.98,538.464,0.0
54800.0,STARLINK-5428,PAYLOAD,2024-01-10 04:23:43,15.08851009,0.0001728,53.2195,338.1252,96.6995,263.4194,4.0588e-05,3.58e-06,0.0,0 STARLINK-5428,1 54800U 22175AU  24010.18313844  .00000358  00000-0  40588-4 0  9998,2 54800  53.2195 338.1252 0001728  96.6995 263.4194 15.08851009 58717,6917.847,95.437,540.907,538.516,0.0
54800.0,STARLINK-5428,PAYLOAD,2024-01-10 07:34:29,15.0885298,0.000174,53.2191,337.527,100.2989,259.8199,8.6118e-05,1.083e-05,0.0,0 STARLINK-5428,1 54800U 22175AU  24010.31561462  .00001083  00000-0  86118-4 0  9999,2 54800  53.2191 337.5270 0001740 100.2989 259.8199 15.08852980 60890,6917.841,95.437,540.909,538.502,0.0
